NORBI                   
1 46494U 20068J   26196.90268156  .00014585  00000+0  26496-3 0  9996
2 46494  97.8611 215.4245 0008363 141.5851 218.5996 15.49641096320650
SALSAT                  
1 46495U 20068K   26196.92204374  .00003996  00000+0  13964-3 0  9991
2 46495  97.8855 201.7454 0009261 190.1996 169.9057 15.30178067319758
ICEYE-X6                
1 46497U 20068M   26196.98758237  .00001434  00000+0  10677-3 0  9994
2 46497  98.0991 192.0400 0007162   8.3097 351.8246 15.04669451317569
NETSAT-4                
1 46504U 20068U   26196.95835460  .00010601  00000+0  22859-3 0  9995
2 46504  97.8601 207.5313 0004847 190.7378 169.3766 15.44772905320211
NETSAT-3                
1 46505U 20068V   26196.98631040  .00010678  00000+0  23934-3 0  9996
2 46505  97.8652 205.7431 0003928 207.3174 152.7867 15.43625105320123
NETSAT-1                
1 46506U 20068W   26196.94929928  .00006801  00000+0  20129-3 0  9994
2 46506  97.8751 199.6882 0002502 257.3559 102.7403 15.35255548319719
NETSAT-2                
1 46507U 20068X   26196.95605156  .00014160  00000+0  28053-3 0  9991
2 46507  97.8611 207.5344 0002240 204.9560 155.1580 15.47184840320186
TIANQI-6                
1 46810U 20076D   26196.75258038  .00001517  00000+0  10024-3 0  9999
2 46810  34.9979 233.1260 0009624  60.0968 300.0697 15.07354376312898
KSM1-C                  
1 46906U 20081B   26196.60365949  .00004158  00000+0  15604-3 0  9998
2 46906  36.8944 243.4509 0001298 109.1413 250.9477 15.27179937313515
KSM1-D                  
1 46907U 20081C   26196.57816885  .00003651  00000+0  14632-3 0  9992
2 46907  36.8960 253.1730 0002817 147.9010 212.1911 15.25102573313433
KSM1-A                  
1 46912U 20081H   26196.55625464  .00003932  00000+0  15136-3 0  9999
2 46912  36.8953 246.3550 0003304 205.5607 154.4979 15.26375362313510
R2                      
1 46913U 20081J   26196.32602177  .00003777  00000+0  14791-3 0  9994
2 46913  36.8967 247.9052 0007849 169.0997 190.9924 15.25820824316283
KSM1-B                  
1 46914U 20081K   26196.58562000  .00003692  00000+0  14887-3 0  9995
2 46914  36.9009 253.8012 0004826 167.9170 192.1695 15.24886271316529
GONETS-M 20             
1 47227U 20091A   26196.90437416  .00000045  00000+0  24891-3 0  9997
2 47227  82.5056 284.5862 0022161 117.4480 242.8857 12.42894350254647
GONETS-M 21             
1 47228U 20091B   26196.95887931  .00000040  00000+0  21551-3 0  9999
2 47228  82.4980 283.2417 0015904 130.3315 229.9157 12.42887388254645
GONETS-M 22             
1 47229U 20091C   26196.93184968 -.00000110  00000+0 -86296-3 0  9995
2 47229  82.5038 284.1706 0023031 112.9171 247.4342 12.42893038254592
CUBEL                   
1 47448U 21006AM  26196.13677143  .00006644  00000+0  15774-3 0  9998
2 47448  97.2316 246.4702 0007870  82.4658 277.7483 15.41999109304066
ARKTIKA-M 1             
1 47719U 21016A   26195.40739072 -.00000301  00000+0  00000+0 0  9996
2 47719  63.2662  53.6722 7297332 270.0591  14.4994  2.00611590 39330
STARLINK-2342           
1 47883U 21021Z   26197.00002315  .00257864  36493-4  71141-3 0  9990
2 47883  53.1505   2.4124 0009193 295.0195 288.9079 15.93397978  6018
GRUS-1B                 
1 47934U 21022C   26196.95164409  .00000878  00000+0  77463-4 0  9999
2 47934  97.5341  79.1902 0014459 214.6019 145.4264 14.98776618290208
UNISAT-7                
1 47945U 21022P   26196.21421408  .00008254  00000+0  20077-3 0  9999
2 47945  97.3863 101.4417 0007824 348.0399  12.0660 15.41197829294177
GLOBAL-9                
1 47971U 21023G   26196.92107597  .00011862  00000+0  23140-3 0  9990
2 47971  44.9815  88.8931 0003504 174.3066 185.7865 15.47629155299394
AII-BRAVO               
1 48270U 21034C   26196.10533659  .00002915  00000+0  21719-3 0  9996
2 48270  97.5597 250.3798 0006280 161.9417 198.2033 15.03668473283815
TYVAK-182A              
1 48271U 21034D   26196.16440277  .00002479  00000+0  17238-3 0  9992
2 48271  97.5715 254.5981 0004838 220.4475 139.6394 15.06405855284041
CSS (TIANHE)            
1 48274U 21035A   26196.53543323  .00001219  00000+0  20014-4 0  9991
2 48274  41.4690 149.7716 0002229 300.3824  59.6794 15.58093729297592
TYVAK-0130              
1 48606U 21041BF  26196.43674407  .00004170  00000+0  16350-3 0  9990
2 48606  52.9942 254.8555 0008507 259.6068 100.3971 15.27939674284702
HAIYANG-2D              
1 48621U 21043A   26196.84895212 -.00000002  00000+0  72275-4 0  9993
2 48621  65.9969 233.3426 0011595 265.7646  94.2097 13.83373868260512
2021-050D               
1 48843U 21050D   26196.97286841  .00001148  00000+0  50849-4 0  9997
2 48843  97.3331 272.3561 0006359 149.2458 210.9154 15.23595347283343
